[{"OBJECT_NAME":"KUIPER-00089","OBJECT_ID":"2025-151U","EPOCH":"2026-03-09T19:25:03.862272","MEAN_MOTION":14.79804244,"ECCENTRICITY":7.955e-5,"INCLINATION":51.8998,"RA_OF_ASC_NODE":285.0532,"ARG_OF_PERICENTER":75.7298,"MEAN_ANOMALY":284.3752,"EPHEMERIS_TYPE":0,"CLASSIFICATION_TYPE":"U","NORAD_CAT_ID":64834,"ELEMENT_SET_NO":999,"REV_AT_EPOCH":3553,"BSTAR":0.00055758047,"MEAN_MOTION_DOT":4.019e-5,"MEAN_MOTION_DDOT":0},{"OBJECT_NAME":"FENGYUN 1C DEB","OBJECT_ID":"1999-025ZB","EPOCH":"2026-03-09T21:55:56.835264","MEAN_MOTION":14.83688974,"ECCENTRICITY":0.0019585,"INCLINATION":102.6179,"RA_OF_ASC_NODE":224.697,"ARG_OF_PERICENTER":195.6163,"MEAN_ANOMALY":317.1775,"EPHEMERIS_TYPE":0,"CLASSIFICATION_TYPE":"U","NORAD_CAT_ID":30290,"ELEMENT_SET_NO":999,"REV_AT_EPOCH":99167,"BSTAR":0.0072005386,"MEAN_MOTION_DOT":0.00060153,"MEAN_MOTION_DDOT":0}]
